[{"OBJECT_NAME":"STARLINK-4556","OBJECT_ID":"2022-101BD","EPOCH":"2026-03-09T23:25:58.497600","MEAN_MOTION":15.0884579,"ECCENTRICITY":0.00012969,"INCLINATION":53.2179,"RA_OF_ASC_NODE":52.4671,"ARG_OF_PERICENTER":90.34,"MEAN_ANOMALY":269.774,"EPHEMERIS_TYPE":0,"CLASSIFICATION_TYPE":"U","NORAD_CAT_ID":53578,"ELEMENT_SET_NO":999,"REV_AT_EPOCH":19649,"BSTAR":0.0001008259,"MEAN_MOTION_DOT":1.317e-5,"MEAN_MOTION_DDOT":0},{"OBJECT_NAME":"FENGYUN 1C DEB","OBJECT_ID":"1999-025FAR","EPOCH":"2026-03-08T03:43:29.800128","MEAN_MOTION":14.889233,"ECCENTRICITY":0.01703105,"INCLINATION":98.6941,"RA_OF_ASC_NODE":137.2071,"ARG_OF_PERICENTER":197.5148,"MEAN_ANOMALY":162.0149,"EPHEMERIS_TYPE":0,"CLASSIFICATION_TYPE":"U","NORAD_CAT_ID":47015,"ELEMENT_SET_NO":999,"REV_AT_EPOCH":65652,"BSTAR":0.0011723418,"MEAN_MOTION_DOT":0.00014397,"MEAN_MOTION_DDOT":0}]
